[{"OBJECT_NAME":"OBJECT B","OBJECT_ID":"2024-203B","EPOCH":"2026-03-09T23:52:52.928256","MEAN_MOTION":15.27506959,"ECCENTRICITY":0.00103904,"INCLINATION":97.4268,"RA_OF_ASC_NODE":139.5887,"ARG_OF_PERICENTER":321.1475,"MEAN_ANOMALY":38.9016,"EPHEMERIS_TYPE":0,"CLASSIFICATION_TYPE":"U","NORAD_CAT_ID":61870,"ELEMENT_SET_NO":999,"REV_AT_EPOCH":7381,"BSTAR":0.00063263842,"MEAN_MOTION_DOT":0.00016997,"MEAN_MOTION_DDOT":0},{"OBJECT_NAME":"STARLINK-32853","OBJECT_ID":"2025-018N","EPOCH":"2026-03-09T21:29:10.648896","MEAN_MOTION":15.30216581,"ECCENTRICITY":0.00010115,"INCLINATION":53.1589,"RA_OF_ASC_NODE":308.3713,"ARG_OF_PERICENTER":95.0655,"MEAN_ANOMALY":265.0461,"EPHEMERIS_TYPE":0,"CLASSIFICATION_TYPE":"U","NORAD_CAT_ID":62818,"ELEMENT_SET_NO":999,"REV_AT_EPOCH":6321,"BSTAR":0.0010161491,"MEAN_MOTION_DOT":0.00029873,"MEAN_MOTION_DDOT":0}]
